*******************************************************************************
JPL/HORIZONS                850 Altona (A916 FG)           2023-Sep-04 11:08:45
Rec #:     850 (+COV) Soln.date: 2023-Aug-24_21:21:23   # obs: 5275 (1917-2023)
 
IAU76/J2000 helio. ecliptic osc. elements (au, days, deg., period=Julian yrs):
 
  EPOCH=  2457235.5 ! 2015-Aug-01.00 (TDB)         Residual RMS= .25535
   EC= .1245478733859335   QR= 2.626434008688051   TP= 2457316.8558576261
   OM= 121.1546119760791   W=  134.4472910505298   IN= 15.54304175678172
   A= 3.000088672862275    MA= 344.5690819560969   ADIST= 3.373743337036499
   PER= 5.19648            N= .189671875           ANGMOM= .029563351
   DAN= 3.23576            DDN= 2.71662            L= 256.669148
   B= 11.0284771           MOID= 1.63505995        TP= 2015-Oct-21.3558576261
 
Asteroid physical parameters (km, seconds, rotational period in hours):
   GM= n.a.                RAD= 40.45              ROTPER= 11.1913
   H= 9.75                 G= .150                 B-V= n.a.
                           ALBEDO= .039            STYP= n.a.

ASTEROID comments: 
1: soln ref.= JPL#65, OCC=0
2: source=ORB
*******************************************************************************


*******************************************************************************
Ephemeris / API_USER Mon Sep  4 11:08:45 2023 Pasadena, USA      / Horizons
*******************************************************************************
Target body name: 850 Altona (A916 FG)            {source: JPL#65}
Center body name: Solar System Barycenter (0)     {source: DE441}
Center-site name: BODY CENTER
*******************************************************************************
Start time      : A.D. 2023-Aug-12 00:00:00.0000 TDB
Stop  time      : A.D. 2023-Aug-13 00:00:00.0000 TDB
Step-size       : 2880 minutes
*******************************************************************************
Center geodetic : 0.0, 0.0, 0.0                   {E-lon(deg),Lat(deg),Alt(km)}
Center cylindric: 0.0, 0.0, 0.0                   {E-lon(deg),Dxy(km),Dz(km)}
Center radii    : (undefined)
Small perturbers: Yes                             {source: SB441-N16}
Output units    : KM-S
Calendar mode   : Mixed Julian/Gregorian
Output type     : GEOMETRIC cartesian states
Output format   : 2 (position and velocity)
Reference frame : Ecliptic of J2000.0
*******************************************************************************
Initial IAU76/J2000 heliocentric ecliptic osculating elements (au, days, deg.):
  EPOCH=  2457235.5 ! 2015-Aug-01.00 (TDB)         Residual RMS= .25535        
   EC= .1245478733859335   QR= 2.626434008688051   TP= 2457316.8558576261      
   OM= 121.1546119760791   W=  134.4472910505298   IN= 15.54304175678172       
  Equivalent ICRF heliocentric cartesian coordinates (au, au/d):
   X=-1.414141029095904E+00  Y=-2.218783358044344E+00  Z=-2.596310036026638E-01
  VX= 9.320057609716171E-03 VY=-5.008664923963629E-03 VZ=-3.641513643737782E-03
Asteroid physical parameters (km, seconds, rotational period in hours):        
   GM= n.a.                RAD= 40.45              ROTPER= 11.1913             
   H= 9.75                 G= .150                 B-V= n.a.                   
                           ALBEDO= .039            STYP= n.a.                  
*******************************************************************************
JDTDB
   X     Y     Z
   VX    VY    VZ
*******************************************************************************
$$SOE
2460168.500000000 = A.D. 2023-Aug-12 00:00:00.0000 TDB 
 X = 1.103641650060260E+08 Y = 4.842123032417747E+08 Z =-9.577783874631192E+07
 VX=-1.431926762368420E+01 VY= 3.835550550836335E+00 VZ= 2.863088467637973E+00
$$EOE
*******************************************************************************
 
TIME

  Barycentric Dynamical Time ("TDB" or T_eph) output was requested. This
continuous coordinate time is equivalent to the relativistic proper time
of a clock at rest in a reference frame co-moving with the solar system
barycenter but outside the system's gravity well. It is the independent
variable in the solar system relativistic equations of motion.

  TDB runs at a uniform rate of one SI second per second and is independent
of irregularities in Earth's rotation.
 
CALENDAR SYSTEM

  Mixed calendar mode was active such that calendar dates after AD 1582-Oct-15
(if any) are in the modern Gregorian system. Dates prior to 1582-Oct-5 (if any)
are in the Julian calendar system, which is automatically extended for dates
prior to its adoption on 45-Jan-1 BC.  The Julian calendar is useful for
matching historical dates. The Gregorian calendar more accurately corresponds
to the Earth's orbital motion and seasons. A "Gregorian-only" calendar mode is
available if such physical events are the primary interest.

REFERENCE FRAME AND COORDINATES

  Ecliptic at the standard reference epoch

    Reference epoch: J2000.0
    X-Y plane: adopted Earth orbital plane at the reference epoch
               Note: IAU76 obliquity of 84381.448 arcseconds wrt ICRF X-Y plane
    X-axis   : ICRF
    Z-axis   : perpendicular to the X-Y plane in the directional (+ or -) sense
               of Earth's north pole at the reference epoch.

  Symbol meaning:

    JDTDB    Julian Day Number, Barycentric Dynamical Time
      X      X-component of position vector (km)
      Y      Y-component of position vector (km)
      Z      Z-component of position vector (km)
      VX     X-component of velocity vector (km/sec)                           
      VY     Y-component of velocity vector (km/sec)                           
      VZ     Z-component of velocity vector (km/sec)                           

ABERRATIONS AND CORRECTIONS

 Geometric state vectors have NO corrections or aberrations applied.

Computations by ...

    Solar System Dynamics Group, Horizons On-Line Ephemeris System
    4800 Oak Grove Drive, Jet Propulsion Laboratory
    Pasadena, CA  91109   USA

    General site: https://ssd.jpl.nasa.gov/
    Mailing list: https://ssd.jpl.nasa.gov/email_list.html
    System news : https://ssd.jpl.nasa.gov/horizons/news.html
    User Guide  : https://ssd.jpl.nasa.gov/horizons/manual.html
    Connect     : browser        https://ssd.jpl.nasa.gov/horizons/app.html#/x
                  API            https://ssd-api.jpl.nasa.gov/doc/horizons.html
                  command-line   telnet ssd.jpl.nasa.gov 6775
                  e-mail/batch   https://ssd.jpl.nasa.gov/ftp/ssd/hrzn_batch.txt
                  scripts        https://ssd.jpl.nasa.gov/ftp/ssd/SCRIPTS
    Author      : Jon.D.Giorgini@jpl.nasa.gov
*******************************************************************************
